#aV2006 12  4  0  0   .00000000      96 DD+AD WGS84 FIT  NGA
## 1404  86400.00000000   900.00000000 54073  .0000000000000
+   30     1  2  3  4  5  6  7  8  9 10 11 12 13 14 16 17 18
+         19 20 21 22 23 24 25 26 27 28 29 30 31  0  0  0  0
+          0  0  0  0  0  0  0  0  0  0  0  0  0  0  0  0  0
+          0  0  0  0  0  0  0  0  0  0  0  0  0  0  0  0  0
+          0  0  0  0  0  0  0  0  0  0  0  0  0  0  0  0  0
++         0  0  0  0  0  0  0  0  0  0  0  0  0  0  0  0  0
++         0  0  0  0  0  0  0  0  0  0  0  0  0  0  0  0  0
++         0  0  0  0  0  0  0  0  0  0  0  0  0  0  0  0  0
++         0  0  0  0  0  0  0  0  0  0  0  0  0  0  0  0  0
++         0  0  0  0  0  0  0  0  0  0  0  0  0  0  0  0  0
%c cc cc ccc ccc cccc cccc cccc cccc ccccc ccccc ccccc ccccc
%c cc cc ccc ccc cccc cccc cccc cccc ccccc ccccc ccccc ccccc
%f  0.0000000  0.000000000  0.00000000000  0.000000000000000
%f  0.0000000  0.000000000  0.00000000000  0.000000000000000
%i    0    0    0    0      0      0      0      0         0
%i    0    0    0    0      0      0      0      0         0
/*      NGA, ST. LOUIS,MO.                                  
/*   EPHEMERIS COMPUTED FROM  3 DAYS OF DATA                
/* CCCCCCCCCCCCCCCCCCCCCCCCCCCCCCCCCCCCCCCCCCCCCCCCCCCCCCCCC
/* CCCCCCCCCCCCCCCCCCCCCCCCCCCCCCCCCCCCCCCCCCCCCCCCCCCCCCCCC
*  2006 12  4 19  0   .00000000                                                 
P  1  18894.896537  14801.637745  11653.479684     93.604950                    
V  1 -14095.621686  -3362.833292  27553.811140       .020251                    
P  2 -13401.791191 -19974.664172 -11765.446658     60.854753                    
V  2   -957.642665 -14688.413000  26324.738516       .035650                    
P  3  22471.873585  11472.563296  -9002.378628    442.736688                    
V  3 -11549.709148    975.882258 -27876.849575       .237653                    
P  4  -5194.543362 -25837.454121    538.149055    343.130317                    
V  4   3620.174607    -12.088779  31697.517493       .036899                    
P  5 -21120.397405  10100.970513  12169.207171    407.686219                    
V  5   8384.836754 -13874.355599  25741.322349       .230623                    
P  6 -16699.512085   9488.666763 -18180.580809    524.763406                    
V  6 -22251.323243  -7919.377488  16085.101943      -.164812                    
P  7  -3875.302576  15109.616975 -21123.763617    481.406872                    
V  7 -27033.376777  -6458.268301    260.863632      -.087147                    
P  8   2400.611692 -24274.907415 -10081.181887    -88.312128                    
V  8   4676.000856  12081.517113 -28766.952351      -.013439                    
P  9 -15633.891624  -2406.398411  20802.431728     47.447714                    
V  9  -6687.009425 -26891.927282  -7686.280957       .015129                    
P 10 -13945.705907  -7282.498889 -21542.121141     93.882488                    
V 10  19928.997168 -18276.643709  -6443.485188       .005988                    
P 11  16875.058908  -1803.825789  20375.983678     -1.692985                    
V 11   9262.732064  24664.021026  -5180.231415       .016469                    
P 12 -20396.953084   2838.726418  17052.318795    -96.328238                    
V 12  14368.797126 -15806.153172  19854.291032       .131191                    
P 13  14615.049694  -9038.953294 -20328.112722    119.132372                    
V 13  23964.324378   8872.517840  13381.228870       .037059                    
P 14   3785.131965  15837.680288  21081.451246       .721447                    
V 14 -25386.838626  -7576.860815  10220.773061       .010610                    
P 16  10085.933563  11293.563942 -21740.757081     98.387527                    
V 16 -20562.267408  18697.026538    292.541898       .038810                    
P 17  -3701.849081 -16291.864313  20666.461151     87.459355                    
V 17  25317.511019   6920.996768   9877.155008      -.014215                    
P 18 -16641.718112  19688.902064   5773.865247   -253.231421                    
V 18  -7531.026276   2340.750097 -30690.799659      -.003191                    
P 19  25349.812241   7799.196904   2232.200553     41.213651                    
V 19   1550.657946   3598.752560 -31459.763004       .041176                    
P 20  21854.011958 -11700.128095   9398.258267    -21.789717                    
V 20  -6822.335875  10344.702643  28509.131093      -.000192                    
P 21  -6877.097899  20651.266275 -14743.061173     63.847578                    
V 21  -6512.770650 -18241.169593 -22923.508809       .014105                    
P 22  -6305.474659  20301.440419  16073.466995    153.719934                    
V 22 -16685.738916  11461.354388 -21256.576077       .023033                    
P 23  23359.859412  -2034.882541 -12740.166656    141.922967                    
V 23  14714.972598   6464.986937  25923.612186       .009510                    
P 24 -12723.799646 -19026.202532 -13048.144858     57.463166                    
V 24   -470.667382 -17183.195425  25421.747202       .029930                    
P 25  10905.070922  23716.999456  -4014.156441    406.188618                    
V 25  -1129.981120   6302.747446  31227.748435      -.018779                    
P 26 -25526.282919  -8374.103263    379.319335    -32.962621                    
V 26   -483.334737  -1603.494770 -32032.783985      -.167395                    
P 27   7141.732734 -18163.723484 -17253.009814     81.401809                    
V 27   8567.445747  21717.637212 -18939.448792       .019818                    
P 28   9369.939727 -20953.589935  13354.682804     12.753100                    
V 28  13961.319985  -9299.901006 -25302.019450      -.008617                    
P 29 -24687.344746  -9647.624460  -3273.782316    240.378252                    
V 29   4690.789016   -350.766046 -31780.086657       .247433                    
P 30 -19123.912348  18301.043512    931.600243     18.418344                    
V 30  -1339.580836  -3514.250156  31444.301934       .011959                    
P 31   7831.952625  25201.654167  -2586.641978    -28.617893                    
V 31  -1978.054653   4090.035116  31548.177181       .082782                    
EOF
